STARLINK-35737          
1 66219U 25244P   25328.50002315  .00072887  00000+0  18174-2 0  9991
2 66219  53.1599   1.8618 0001287  76.8717  52.3767 15.39576087  5439
STARLINK-35677          
1 66220U 25244Q   25328.50002315  .00092886  00000+0  23069-2 0  9993
2 66220  53.1591   1.8107 0001592  81.7585  73.2265 15.39580166  5273
STARLINK-35704          
1 66221U 25244R   25328.50002315  .00077195  00000+0  19234-2 0  9999
2 66221  53.1592   1.7588 0001995  79.7556 100.9986 15.39571293  5278
STARLINK-35666          
1 66222U 25244S   25326.39417640  .00043378  00000+0  78291-3 0  9991
2 66222  53.1602  11.7237 0001062  94.1773 265.9358 15.49336315  5180
STARLINK-35664          
1 66223U 25244T   25328.50002315 -.02206500  00000+0 -58249-1 0  9997
2 66223  53.1590   1.7137 0001945  56.4410 147.3265 15.41229711  5389
STARLINK-35733          
1 66224U 25244U   25327.61925177 -.00098023  00000+0 -18089-2 0  9995
2 66224  53.1598   5.8591 0001178  58.7930 301.3195 15.48796329  5371
STARLINK-35734          
1 66225U 25244V   25328.50002315 -.02031518  00000+0 -49329-1 0  9993
2 66225  53.1596   1.6735 0001565  73.6854 149.1304 15.43978695  5277
STARLINK-34466          
1 66226U 25244W   25328.32835472 -.01464599  00000+0 -29240-1 0  9990
2 66226  53.1594   2.4625 0014132 181.5189 178.5780 15.49371537  5482
STARLINK-34882          
1 66227U 25244X   25327.48944181  .00067566  00000+0  12109-2 0  9992
2 66227  53.1597   6.4696 0001521  55.7690 304.3463 15.49344501  5359
STARLINK-35731          
1 66228U 25244Y   25328.32770226  .00085036  00000+0  15188-2 0  9996
2 66228  53.1597   2.4560 0001441  41.9102 318.2017 15.49339259  5489
STARLINK-35758          
1 66229U 25244Z   25328.32735807  .00066971  00000+0  12009-2 0  9999
2 66229  53.1599   2.4563 0001290  85.6728 274.4428 15.49332899  5488
STARLINK-35736          
1 66230U 25244AA  25328.39152209  .00039203  00000+0  70879-3 0  9995
2 66230  53.1593   2.1455 0001159  74.0756 286.0380 15.49333156  5492
