CCSDS_OMM_VERS = 2.0
CREATION_DATE  = 
ORIGINATOR     = 

OBJECT_NAME    = STARLINK-35737
OBJECT_ID      = 2025-244P
CENTER_NAME    = EARTH
REF_FRAME      = TEME
TIME_SYSTEM    = UTC
MEAN_ELEMENT_THEORY = SGP/SGP4

EPOCH          = 2025-11-24T12:00:02.000160
MEAN_MOTION    = 15.39576087
ECCENTRICITY   = .0001287
INCLINATION    = 53.1599
RA_OF_ASC_NODE = 1.8618
ARG_OF_PERICENTER = 76.8717
MEAN_ANOMALY   = 52.3767

EPHEMERIS_TYPE = 0
CLASSIFICATION_TYPE = U
NORAD_CAT_ID   = 66219
ELEMENT_SET_NO = 999
REV_AT_EPOCH   = 543
BSTAR          = .18174E-2
MEAN_MOTION_DOT = .72887E-3
MEAN_MOTION_DDOT = 0

CCSDS_OMM_VERS = 2.0
CREATION_DATE  = 
ORIGINATOR     = 

OBJECT_NAME    = STARLINK-35677
OBJECT_ID      = 2025-244Q
CENTER_NAME    = EARTH
REF_FRAME      = TEME
TIME_SYSTEM    = UTC
MEAN_ELEMENT_THEORY = SGP/SGP4

EPOCH          = 2025-11-24T12:00:02.000160
MEAN_MOTION    = 15.39580166
ECCENTRICITY   = .0001592
INCLINATION    = 53.1591
RA_OF_ASC_NODE = 1.8107
ARG_OF_PERICENTER = 81.7585
MEAN_ANOMALY   = 73.2265

EPHEMERIS_TYPE = 0
CLASSIFICATION_TYPE = U
NORAD_CAT_ID   = 66220
ELEMENT_SET_NO = 999
REV_AT_EPOCH   = 527
BSTAR          = .23069E-2
MEAN_MOTION_DOT = .92886E-3
MEAN_MOTION_DDOT = 0

CCSDS_OMM_VERS = 2.0
CREATION_DATE  = 
ORIGINATOR     = 

OBJECT_NAME    = STARLINK-35704
OBJECT_ID      = 2025-244R
CENTER_NAME    = EARTH
REF_FRAME      = TEME
TIME_SYSTEM    = UTC
MEAN_ELEMENT_THEORY = SGP/SGP4

EPOCH          = 2025-11-24T12:00:02.000160
MEAN_MOTION    = 15.39571293
ECCENTRICITY   = .0001995
INCLINATION    = 53.1592
RA_OF_ASC_NODE = 1.7588
ARG_OF_PERICENTER = 79.7556
MEAN_ANOMALY   = 100.9986

EPHEMERIS_TYPE = 0
CLASSIFICATION_TYPE = U
NORAD_CAT_ID   = 66221
ELEMENT_SET_NO = 999
REV_AT_EPOCH   = 527
BSTAR          = .19234E-2
MEAN_MOTION_DOT = .77195E-3
MEAN_MOTION_DDOT = 0

CCSDS_OMM_VERS = 2.0
CREATION_DATE  = 
ORIGINATOR     = 

OBJECT_NAME    = STARLINK-35666
OBJECT_ID      = 2025-244S
CENTER_NAME    = EARTH
REF_FRAME      = TEME
TIME_SYSTEM    = UTC
MEAN_ELEMENT_THEORY = SGP/SGP4

EPOCH          = 2025-11-22T09:27:36.840960
MEAN_MOTION    = 15.49336315
ECCENTRICITY   = .00010629
INCLINATION    = 53.1602
RA_OF_ASC_NODE = 11.7237
ARG_OF_PERICENTER = 94.1773
MEAN_ANOMALY   = 265.9358

EPHEMERIS_TYPE = 0
CLASSIFICATION_TYPE = U
NORAD_CAT_ID   = 66222
ELEMENT_SET_NO = 999
REV_AT_EPOCH   = 518
BSTAR          = .78291247E-3
MEAN_MOTION_DOT = .43378E-3
MEAN_MOTION_DDOT = 0

CCSDS_OMM_VERS = 2.0
CREATION_DATE  = 
ORIGINATOR     = 

OBJECT_NAME    = STARLINK-35664
OBJECT_ID      = 2025-244T
CENTER_NAME    = EARTH
REF_FRAME      = TEME
TIME_SYSTEM    = UTC
MEAN_ELEMENT_THEORY = SGP/SGP4

EPOCH          = 2025-11-24T12:00:02.000160
MEAN_MOTION    = 15.41229711
ECCENTRICITY   = .0001945
INCLINATION    = 53.1590
RA_OF_ASC_NODE = 1.7137
ARG_OF_PERICENTER = 56.4410
MEAN_ANOMALY   = 147.3265

EPHEMERIS_TYPE = 0
CLASSIFICATION_TYPE = U
NORAD_CAT_ID   = 66223
ELEMENT_SET_NO = 999
REV_AT_EPOCH   = 538
BSTAR          = -.58249E-1
MEAN_MOTION_DOT = -.22065E-1
MEAN_MOTION_DDOT = 0

CCSDS_OMM_VERS = 2.0
CREATION_DATE  = 
ORIGINATOR     = 

OBJECT_NAME    = STARLINK-35733
OBJECT_ID      = 2025-244U
CENTER_NAME    = EARTH
REF_FRAME      = TEME
TIME_SYSTEM    = UTC
MEAN_ELEMENT_THEORY = SGP/SGP4

EPOCH          = 2025-11-23T14:51:43.352064
MEAN_MOTION    = 15.48796329
ECCENTRICITY   = .0001179
INCLINATION    = 53.1598
RA_OF_ASC_NODE = 5.8591
ARG_OF_PERICENTER = 58.7930
MEAN_ANOMALY   = 301.3195

EPHEMERIS_TYPE = 0
CLASSIFICATION_TYPE = U
NORAD_CAT_ID   = 66224
ELEMENT_SET_NO = 999
REV_AT_EPOCH   = 537
BSTAR          = -.18089E-2
MEAN_MOTION_DOT = -.98023E-3
MEAN_MOTION_DDOT = 0

CCSDS_OMM_VERS = 2.0
CREATION_DATE  = 
ORIGINATOR     = 

OBJECT_NAME    = STARLINK-35734
OBJECT_ID      = 2025-244V
CENTER_NAME    = EARTH
REF_FRAME      = TEME
TIME_SYSTEM    = UTC
MEAN_ELEMENT_THEORY = SGP/SGP4

EPOCH          = 2025-11-24T12:00:02.000160
MEAN_MOTION    = 15.43978695
ECCENTRICITY   = .0001565
INCLINATION    = 53.1596
RA_OF_ASC_NODE = 1.6735
ARG_OF_PERICENTER = 73.6854
MEAN_ANOMALY   = 149.1304

EPHEMERIS_TYPE = 0
CLASSIFICATION_TYPE = U
NORAD_CAT_ID   = 66225
ELEMENT_SET_NO = 999
REV_AT_EPOCH   = 527
BSTAR          = -.49329E-1
MEAN_MOTION_DOT = -.2031518E-1
MEAN_MOTION_DDOT = 0

CCSDS_OMM_VERS = 2.0
CREATION_DATE  = 
ORIGINATOR     = 

OBJECT_NAME    = STARLINK-34466
OBJECT_ID      = 2025-244W
CENTER_NAME    = EARTH
REF_FRAME      = TEME
TIME_SYSTEM    = UTC
MEAN_ELEMENT_THEORY = SGP/SGP4

EPOCH          = 2025-11-24T07:52:49.847808
MEAN_MOTION    = 15.49371537
ECCENTRICITY   = .0014132
INCLINATION    = 53.1594
RA_OF_ASC_NODE = 2.4625
ARG_OF_PERICENTER = 181.5189
MEAN_ANOMALY   = 178.5780

EPHEMERIS_TYPE = 0
CLASSIFICATION_TYPE = U
NORAD_CAT_ID   = 66226
ELEMENT_SET_NO = 999
REV_AT_EPOCH   = 548
BSTAR          = -.2924E-1
MEAN_MOTION_DOT = -.1464599E-1
MEAN_MOTION_DDOT = 0

CCSDS_OMM_VERS = 2.0
CREATION_DATE  = 
ORIGINATOR     = 

OBJECT_NAME    = STARLINK-34882
OBJECT_ID      = 2025-244X
CENTER_NAME    = EARTH
REF_FRAME      = TEME
TIME_SYSTEM    = UTC
MEAN_ELEMENT_THEORY = SGP/SGP4

EPOCH          = 2025-11-23T11:44:47.772384
MEAN_MOTION    = 15.49344501
ECCENTRICITY   = .0001521
INCLINATION    = 53.1597
RA_OF_ASC_NODE = 6.4696
ARG_OF_PERICENTER = 55.7690
MEAN_ANOMALY   = 304.3463

EPHEMERIS_TYPE = 0
CLASSIFICATION_TYPE = U
NORAD_CAT_ID   = 66227
ELEMENT_SET_NO = 999
REV_AT_EPOCH   = 535
BSTAR          = .12109E-2
MEAN_MOTION_DOT = .67566E-3
MEAN_MOTION_DDOT = 0

CCSDS_OMM_VERS = 2.0
CREATION_DATE  = 
ORIGINATOR     = 

OBJECT_NAME    = STARLINK-35731
OBJECT_ID      = 2025-244Y
CENTER_NAME    = EARTH
REF_FRAME      = TEME
TIME_SYSTEM    = UTC
MEAN_ELEMENT_THEORY = SGP/SGP4

EPOCH          = 2025-11-24T07:51:53.475264
MEAN_MOTION    = 15.49339259
ECCENTRICITY   = .0001441
INCLINATION    = 53.1597
RA_OF_ASC_NODE = 2.4560
ARG_OF_PERICENTER = 41.9102
MEAN_ANOMALY   = 318.2017

EPHEMERIS_TYPE = 0
CLASSIFICATION_TYPE = U
NORAD_CAT_ID   = 66228
ELEMENT_SET_NO = 999
REV_AT_EPOCH   = 548
BSTAR          = .15188E-2
MEAN_MOTION_DOT = .85036E-3
MEAN_MOTION_DDOT = 0

CCSDS_OMM_VERS = 2.0
CREATION_DATE  = 
ORIGINATOR     = 

OBJECT_NAME    = STARLINK-35758
OBJECT_ID      = 2025-244Z
CENTER_NAME    = EARTH
REF_FRAME      = TEME
TIME_SYSTEM    = UTC
MEAN_ELEMENT_THEORY = SGP/SGP4

EPOCH          = 2025-11-24T07:51:23.737248
MEAN_MOTION    = 15.49332899
ECCENTRICITY   = .000129
INCLINATION    = 53.1599
RA_OF_ASC_NODE = 2.4563
ARG_OF_PERICENTER = 85.6728
MEAN_ANOMALY   = 274.4428

EPHEMERIS_TYPE = 0
CLASSIFICATION_TYPE = U
NORAD_CAT_ID   = 66229
ELEMENT_SET_NO = 999
REV_AT_EPOCH   = 548
BSTAR          = .12009E-2
MEAN_MOTION_DOT = .66971E-3
MEAN_MOTION_DDOT = 0

CCSDS_OMM_VERS = 2.0
CREATION_DATE  = 
ORIGINATOR     = 

OBJECT_NAME    = STARLINK-35736
OBJECT_ID      = 2025-244AA
CENTER_NAME    = EARTH
REF_FRAME      = TEME
TIME_SYSTEM    = UTC
MEAN_ELEMENT_THEORY = SGP/SGP4

EPOCH          = 2025-11-24T09:23:47.508576
MEAN_MOTION    = 15.49333156
ECCENTRICITY   = .0001159
INCLINATION    = 53.1593
RA_OF_ASC_NODE = 2.1455
ARG_OF_PERICENTER = 74.0756
MEAN_ANOMALY   = 286.0380

EPHEMERIS_TYPE = 0
CLASSIFICATION_TYPE = U
NORAD_CAT_ID   = 66230
ELEMENT_SET_NO = 999
REV_AT_EPOCH   = 549
BSTAR          = .70879E-3
MEAN_MOTION_DOT = .39203E-3
MEAN_MOTION_DDOT = 0

